IRIDIUM 33 DEB          
1 35620U 97051QS  26064.76742037  .00010264  00000+0  29057-2 0  9999
2 35620  86.3913 182.3886 0130691 344.0446  15.6652 14.40556949611605
IRIDIUM 33 DEB          
1 35622U 97051QU  26065.89625840  .00048579  00000+0  26660-2 0  9995
2 35622  86.1939 221.7716 0006612 310.8118 200.8607 15.13923260886297
IRIDIUM 33 DEB          
1 35628U 97051RA  26066.01099946  .00008059  00000+0  13633-2 0  9993
2 35628  86.3596 331.4600 0013803  45.9686 314.2663 14.69183870876837
IRIDIUM 33 DEB          
1 35631U 97051RD  26066.24013921  .00001870  00000+0  50160-3 0  9992
2 35631  86.3728 344.5971 0015778 192.5791 320.9949 14.47625787884196
IRIDIUM 33 DEB          
1 35680U 97051RJ  26062.56771014  .00010642  00000+0  42353-2 0  9992
2 35680  86.1052 345.7068 0154844  22.2182  95.9581 14.22211774618498
IRIDIUM 33 DEB          
1 35744U 97051RX  26065.36451467  .00006873  00000+0  10796-2 0  9998
2 35744  86.3249 287.6142 0018773 271.7574  88.1493 14.72355333885613
IRIDIUM 33 DEB          
1 35797U 97051SF  26065.92316124  .00013032  00000+0  15000-2 0  9996
2 35797  86.3353 291.2110 0008904 224.1367 135.9148 14.85630220885893
IRIDIUM 33 DEB          
1 35806U 97051SQ  26066.49248753  .00007373  00000+0  15827-2 0  9990
2 35806  86.3492 343.2940 0014197 133.7788 226.4599 14.58453030875594
IRIDIUM 33 DEB          
1 35809U 97051ST  26061.41166348  .00010902  00000+0  15133-2 0  9991
2 35809  86.3258 299.0145 0011940 341.4382  18.6400 14.77775546879836
IRIDIUM 33 DEB          
1 35846U 97051SW  26065.30794006  .00003066  00000+0  89912-3 0  9992
2 35846  86.3784  23.1548 0015391 259.2944 100.6524 14.43542666725341
IRIDIUM 33 DEB          
1 35848U 97051SY  26064.02850151  .00015922  00000+0  20452-2 0  9993
2 35848  86.3931 339.0580 0005291 297.2212  62.8470 14.81095014679079
IRIDIUM 33 DEB          
1 35850U 97051TA  26063.95575906  .00013460  00000+0  17235-2 0  9999
2 35850  86.3508 306.7887 0007616 284.6052  75.4325 14.81217971725730
IRIDIUM 33 DEB          
1 35915U 97051TY  26065.94236618  .00013241  00000+0  16033-2 0  9998
2 35915  86.3420 304.4046 0008751 270.7064  89.3157 14.83541192 93335
IRIDIUM 33 DEB          
1 35918U 97051UB  26065.21104229  .00005314  00000+0  13049-2 0  9999
2 35918  86.4015  39.9460 0023352 251.9311 168.2014 14.52050989864182
IRIDIUM 33 DEB          
1 35929U 97051UN  26063.30489908  .00059943  00000+0  37251-2 0  9997
2 35929  86.3396 273.7871 0015419  83.8088 276.4906 15.09298145890077
IRIDIUM 33 DEB          
1 36011U 97051US  26066.56492191  .00002354  00000+0  71596-3 0  9994
2 36011  86.3460 358.9882 0017022 308.0172 177.2429 14.41666517657625
